[Satellite]
VERSION=1.1
NAME=CAS-4B
NICKNAME=CAS-4B
TLE1=1 42759U 17034B   19311.73144991  .00000097  00000-0  19437-4 0  9999
TLE2=2 42759  43.0170 170.6143 0010598  61.6145  53.2849 15.09675749132305
STATUS=0
